[{"OBJECT_NAME":"COSMOS 2488 (RODNIK-S 7)","OBJECT_ID":"2013-076A","EPOCH":"2026-03-09T22:43:58.410048","MEAN_MOTION":12.42901515,"ECCENTRICITY":0.00185614,"INCLINATION":82.4815,"RA_OF_ASC_NODE":230.5184,"ARG_OF_PERICENTER":313.165,"MEAN_ANOMALY":46.7878,"EPHEMERIS_TYPE":0,"CLASSIFICATION_TYPE":"U","NORAD_CAT_ID":39483,"ELEMENT_SET_NO":999,"REV_AT_EPOCH":55356,"BSTAR":-0.00049341553,"MEAN_MOTION_DOT":-5.9e-7,"MEAN_MOTION_DDOT":0},{"OBJECT_NAME":"SCOUT B DEB","OBJECT_ID":"1965-063AE","EPOCH":"2026-03-09T14:57:07.314912","MEAN_MOTION":12.57381297,"ECCENTRICITY":0.0804092,"INCLINATION":69.1325,"RA_OF_ASC_NODE":273.0794,"ARG_OF_PERICENTER":31.1,"MEAN_ANOMALY":333.5148,"EPHEMERIS_TYPE":0,"CLASSIFICATION_TYPE":"U","NORAD_CAT_ID":37862,"ELEMENT_SET_NO":999,"REV_AT_EPOCH":73794,"BSTAR":0.028107,"MEAN_MOTION_DOT":0.00016203,"MEAN_MOTION_DDOT":0}]
